QIANFAN-25              
1 61558U 24185G   25316.26032315  .00001136  00000+0  68630-3 0  9990
2 61558  88.9794  81.6319 0010762  49.4859 310.7259 14.05867345 65220
QIANFAN-26              
1 61559U 24185H   25316.31922311  .00000450  00000+0  43736-3 0  9999
2 61559  88.9793  83.0275 0007552 103.0724 257.1286 13.77785443 64485
QIANFAN-27              
1 61560U 24185J   25316.32215638  .00001651  00000+0  66937-3 0  9991
2 61560  88.9789  80.5033 0008953  41.7986 318.3891 14.27276609 65826
QIANFAN-28              
1 61561U 24185K   25316.31889069  .00002253  00000+0  90385-3 0  9999
2 61561  88.9807  80.5043 0008170  42.8298 317.3532 14.27939186 65836
QIANFAN-29              
1 61562U 24185L   25316.29911710  .00000357  00000+0  53384-3 0  9997
2 61562  88.9769  84.4498 0011462 134.2568 225.9526 13.50995497 63685
QIANFAN-31              
1 61564U 24185N   25316.32462942  .00000413  00000+0  55608-3 0  9995
2 61564  88.9774  83.8112 0008711 116.0961 244.1091 13.57950259 64031
QIANFAN-32              
1 61565U 24185P   25316.31028961  .00000230  00000+0  33952-3 0  9999
2 61565  88.9832  84.0872 0010548 144.4577 215.7278 13.50720466 63939
